ONEWEB-0283             
1 49001U 21060AL  24144.66352316  .00000031  00000+0  46541-4 0  9997
2 49001  87.9130  18.9922 0001951  92.5701 267.5653 13.16595304140337
ONEWEB-0284             
1 49002U 21060AM  24144.73318720  .00000082  00000+0  18192-3 0  9993
2 49002  87.9121  18.9634 0002081  83.3944 276.7424 13.16595899140326
ONEWEB-0285             
1 49075U 21075A   24144.99941935 -.00000011  00000+0 -67245-4 0  9995
2 49075  87.8926 140.8227 0002101  88.9182 271.2187 13.12442776137265
ONEWEB-0286             
1 49076U 21075B   24144.89444406  .00000355  00000+0  95246-3 0  9996
2 49076  87.8923 140.8471 0001760  80.0558 280.0769 13.12445162135628
ONEWEB-0287             
1 49077U 21075C   24144.58947587  .00000036  00000+0  60610-4 0  9995
2 49077  87.9166 156.0603 0002061  78.3356 281.8006 13.17650103134255
ONEWEB-0288             
1 49078U 21075D   24145.48845407 -.00000416  00000+0 -11910-2 0  9995
2 49078  87.8920 140.7318 0002049  83.5425 276.5937 13.12443924137317
ONEWEB-0289             
1 49079U 21075E   24145.52918460  .00000072  00000+0  15124-3 0  9999
2 49079  87.9166 155.9009 0002131  94.5611 265.5764 13.17649383135920
ONEWEB-0290             
1 49080U 21075F   24145.51177748  .00000067  00000+0  13960-3 0  9996
2 49080  87.9155 155.8645 0002201  79.9080 280.2299 13.17653364135347
